     2              NAVIGATION DATA                         RINEX VERSION / TYPE
comb_nav.pl         SOPAC      Thu Feb 23 04:00:13 UTC 2012 PGM / RUN BY / DATE 
                 BROADCAST EPHEMERIS FILE                   COMMENT             
      SOPAC - Scripps Orbit and Permanent Array Center      COMMENT
    IGPP - Institute of Geophysics and Planetary Physics    COMMENT
         SIO - Scripps Institution of Oceanography          COMMENT
        UCSD - University of California, San Diego          COMMENT
                                                            COMMENT
                email: devel@gpsmail.ucsd.edu               COMMENT
                    ftp://garner.ucsd.edu                   COMMENT
                    http://sopac.ucsd.edu                   COMMENT
                                                            COMMENT
                                                            END OF HEADER       
15 12  2 22 21 59 44.0-9.271036833525D-05 4.547473508865D-13 0.000000000000D+00
    9.000000000000D+00-6.790625000000D+01 4.981993234301D-09-2.754332808103D+00
   -3.514811396599D-06 4.353152704425D-03 8.272007107735D-06 5.153772495270D+03
    3.383840000000D+05-1.396983861923D-07 2.597924697831D+00-1.490116119385D-08
    9.466058635795D-01 2.144062500000D+02 3.784197343580D-02-8.232842930954D-09
   -5.064496670900D-10 1.000000000000D+00 1.676000000000D+03 0.000000000000D+00
    2.000000000000D+00 0.000000000000D+00-1.024454832077D-08 9.000000000000D+00
    3.376560000000D+05 4.000000000000D+00
15 12  2 23  0  0  0.0-9.270710870624D-05 4.547473508865D-13 0.000000000000D+00
    1.000000000000D+01-7.690625000000D+01 5.019494597747D-09-1.702181410574D+00
   -4.226341843605D-06 4.353882046416D-03 7.828697562218D-06 5.153769664764D+03
    3.456000000000D+05 3.725290298462D-09 2.597864204706D+00-9.872019290924D-08
    9.466022735786D-01 2.212500000000D+02 3.814914380782D-02-8.334632539686D-09
   -4.060883573853D-10 1.000000000000D+00 1.676000000000D+03 0.000000000000D+00
    2.000000000000D+00 0.000000000000D+00-1.024454832077D-08 1.000000000000D+01
    3.438600000000D+05
16 12  2 22  0  0  0.0-2.244110219181D-04-1.591615728103D-12 0.000000000000D+00
    5.500000000000D+01 2.250000000000D+00 4.588405211337D-09 5.731971532193D-02
    2.048909664154D-08 6.451176363043D-03 1.987442374229D-06 5.153611597061D+03
    2.592000000000D+05 7.823109626770D-08-1.528992502024D+00-3.725290298462D-08
    9.791136163779D-01 3.492500000000D+02-7.801177430353D-02-8.460352418638D-09
   -6.928860263322D-11 1.000000000000D+00 1.676000000000D+03 0.000000000000D+00
    2.000000000000D+00 0.000000000000D+00-9.778887033463D-09 5.500000000000D+01
    2.592000000000D+05
16 12  2 22  2  0  0.0-2.244226634502D-04-1.591615728103D-12 0.000000000000D+00
    5.700000000000D+01 1.278125000000D+01 4.585905307078D-09 1.107383898870D+00
    8.326023817062D-07 6.452340167016D-03 1.650303602219D-06 5.153614500046D+03
    2.664000000000D+05 7.636845111847D-08-1.529052952724D+00 3.911554813385D-08
    9.791132769809D-01 3.525000000000D+02-7.785736915194D-02-8.394635384545D-09
   -1.003613233091D-10 0.000000000000D+00 1.676000000000D+03 0.000000000000D+00
    2.000000000000D+00 0.000000000000D+00-9.778887033463D-09 5.700000000000D+01
    2.610000000000D+05 4.000000000000D+00
16 12  2 22  4  0  0.0-2.244343049824D-04-1.591615728103D-12 0.000000000000D+00
    9.700000000000D+01 1.734375000000D+01 4.642693386815D-09 2.157527507167D+00
    1.069158315659D-06 6.452606874518D-03 2.147629857063D-06 5.153615365982D+03
    2.736000000000D+05-9.313225746155D-09-1.529114061738D+00 2.067536115646D-07
    9.791129683052D-01 3.493437500000D+02-7.778342303178D-02-8.371420131822D-09
    3.964450849577D-11 0.000000000000D+00 1.676000000000D+03 0.000000000000D+00
    2.000000000000D+00 0.000000000000D+00-9.778887033463D-09 9.700000000000D+01
    2.664000000000D+05 4.000000000000D+00
16 12  2 22  6  0  0.0-2.244459465146D-04-1.591615728103D-12 0.000000000000D+00
    1.030000000000D+02 2.618750000000D+01 4.628764235181D-09-3.075340506768D+00
    1.411885023117D-06 6.453819572926D-03 2.369284629822D-06 5.153612792969D+03
    2.808000000000D+05-1.117587089539D-07-1.529174351518D+00 2.980232238770D-08
    9.791142030081D-01 3.451562500000D+02-7.788214220669D-02-8.233557246422D-09
    1.335769925893D-10 0.000000000000D+00 1.676000000000D+03 0.000000000000D+00
    2.000000000000D+00 0.000000000000D+00-9.778887033463D-09 1.030000000000D+02
    2.736000000000D+05 4.000000000000D+00
16 12  2 22  8  0  0.0-2.244580537081D-04-1.591615728103D-12 0.000000000000D+00
    1.040000000000D+02 2.043750000000D+01 4.675551898361D-09-2.025202851085D+00
    9.238719940186D-07 6.454600603320D-03 2.631917595863D-06 5.153611019135D+03
    2.880000000000D+05-8.381903171539D-08-1.529234533042D+00-1.303851604462D-07
    9.791148657099D-01 3.417187500000D+02-7.779989548936D-02-8.359991084328D-09
    2.017941198208D-10 1.000000000000D+00 1.676000000000D+03 0.000000000000D+00
    2.000000000000D+00 0.000000000000D+00-9.778887033463D-09 1.040000000000D+02
    2.847060000000D+05 4.000000000000D+00
16 12  2 22 10  0  0.0-2.244696952403D-04-1.591615728103D-12 0.000000000000D+00
    1.100000000000D+02 1.800000000000D+01 4.598763148067D-09-9.749802788592D-01
    8.009374141693D-07 6.454768124968D-03 2.278015017509D-06 5.153611066818D+03
    2.952000000000D+05 1.303851604462D-08-1.529294846229D+00-1.378357410431D-07
    9.791164178660D-01 3.414375000000D+02-7.780216886405D-02-8.387135430610D-09
    2.032227441884D-10 1.000000000000D+00 1.676000000000D+03 0.000000000000D+00
    2.000000000000D+00 0.000000000000D+00-9.778887033463D-09 1.100000000000D+02
    2.895600000000D+05
16 12  2 22 12  0  0.0-2.244813367724D-04-1.591615728103D-12 0.000000000000D+00
    1.110000000000D+02 1.412500000000D+01 4.562332733826D-09 7.528571131207D-02
    8.046627044678D-07 6.455246824771D-03 2.272427082062D-06 5.153612144470D+03
    3.024000000000D+05 8.195638656616D-08-1.529355232561D+00-6.332993507385D-08
    9.791174740929D-01 3.425000000000D+02-7.784908464685D-02-8.442137655607D-09
    1.582208808415D-10 1.000000000000D+00 1.676000000000D+03 0.000000000000D+00
    2.000000000000D+00 0.000000000000D+00-9.778887033463D-09 1.110000000000D+02
    2.952000000000D+05
16 12  2 22 13 59 44.0-2.244925126433D-04-1.591615728103D-12 0.000000000000D+00
    2.400000000000D+01 2.487500000000D+01 4.446970948475D-09 1.123010761997D+00
    1.363456249237D-06 6.456442992203D-03 2.119690179825D-06 5.153615140915D+03
    3.095840000000D+05 6.519258022308D-08-1.529414992765D+00 8.195638656616D-08
    9.791188741055D-01 3.457500000000D+02-7.769056284379D-02-8.318917944895D-09
    9.500395729616D-11 1.000000000000D+00 1.676000000000D+03 0.000000000000D+00
    2.000000000000D+00 0.000000000000D+00-9.778887033463D-09 2.400000000000D+01
    3.043920000000D+05 4.000000000000D+00
16 12  2 22 14  0  0.0-2.244929783046D-04-1.591615728103D-12 0.000000000000D+00
    1.170000000000D+02 2.487500000000D+01 4.446970948475D-09 1.125344566913D+00
    1.363456249237D-06 6.456443574280D-03 2.121552824974D-06 5.153615139008D+03
    3.096000000000D+05 6.519258022308D-08-1.529415128816D+00 8.195638656616D-08
    9.791188975122D-01 3.457500000000D+02-7.769047653162D-02-8.318917944895D-09
    9.500395729616D-11 1.000000000000D+00 1.676000000000D+03 0.000000000000D+00
    2.800000000000D+00 0.000000000000D+00-9.778887033463D-09 1.170000000000D+02
    3.024420000000D+05 4.000000000000D+00
16 12  2 22 15 59 44.0-2.245041541755D-04-1.591615728103D-12 0.000000000000D+00
    2.500000000000D+01 2.921875000000D+01 4.469114727996D-09 2.173149195953D+00
    1.560896635056D-06 6.456694449298D-03 2.494081854820D-06 5.153616043091D+03
    3.167840000000D+05-1.862645149231D-08-1.529475061644D+00 1.359730958939D-07
    9.791196479891D-01 3.423125000000D+02-7.761325640080D-02-8.296417007641D-09
    1.414344627416D-10 0.000000000000D+00 1.676000000000D+03 0.000000000000D+00
    2.000000000000D+00 0.000000000000D+00-9.778887033463D-09 2.500000000000D+01
    3.096000000000D+05 4.000000000000D+00
16 12  2 22 18  0  0.0-2.245157957077D-04-1.591615728103D-12 0.000000000000D+00
    2.600000000000D+01 3.809375000000D+01 4.455185553809D-09-3.057388793247D+00
    2.020969986916D-06 6.457977462560D-03 2.812594175339D-06 5.153613361359D+03
    3.240000000000D+05-7.264316082001D-08-1.529534924252D+00 2.607703208923D-08
    9.791212352553D-01 3.373750000000D+02-7.770996552627D-02-8.212841962063D-09
    1.957224382565D-10 1.000000000000D+00 1.676000000000D+03 0.000000000000D+00
    2.000000000000D+00 0.000000000000D+00-9.778887033463D-09 2.600000000000D+01
    3.214500000000D+05
16 12  2 22 20  0  0.0-2.245274372399D-04-1.591615728103D-12 0.000000000000D+00
    3.000000000000D+01 3.059375000000D+01 4.509473683356D-09-2.007277571031D+00
    1.577660441399D-06 6.458989577368D-03 3.086403012276D-06 5.153611059189D+03
    3.312000000000D+05-6.332993507385D-08-1.529594533775D+00-5.587935447693D-08
    9.791224933648D-01 3.329375000000D+02-7.760282433198D-02-8.278559171515D-09
    2.296524220791D-10 1.000000000000D+00 1.676000000000D+03 0.000000000000D+00
    2.000000000000D+00 0.000000000000D+00-9.778887033463D-09 3.000000000000D+01
    3.240000000000D+05
16 12  2 22 22  0  0.0-2.245390787721D-04-1.591615728103D-12 0.000000000000D+00
    3.100000000000D+01 2.856250000000D+01 4.495187333475D-09-9.570799766684D-01
    1.473352313042D-06 6.459114258178D-03 2.911314368248D-06 5.153610813141D+03
    3.384000000000D+05 2.235174179077D-08-1.529653748310D+00-1.676380634308D-07
    9.791239050808D-01 3.338437500000D+02-7.758135893500D-02-8.303202569948D-09
    1.389343640135D-10 1.000000000000D+00 1.676000000000D+03 0.000000000000D+00
    2.000000000000D+00 0.000000000000D+00-9.778887033463D-09 3.100000000000D+01
    3.312000000000D+05
